start=new Date('2021-10-31T00:00:00.000Z').valueOf();
sats=[{"ECCENTRICITY":"0.00013460","OBJECT_TYPE":"PAYLOAD","DECAY_DATE":null,"OBJECT_ID":"2021-005BF","MEAN_MOTION_DDOT":"0.0000000000000","LAUNCH_DATE":"2021-01-20","SEMIMAJOR_AXIS":"6925.322","EPHEMERIS_TYPE":"0","CENTER_NAME":"EARTH","RCS_SIZE":"LARGE","NORAD_CAT_ID":"47402","MEAN_ELEMENT_THEORY":"SGP4","ARG_OF_PERICENTER":"77.8717","FILE":"3193105","TIME_SYSTEM":"UTC","RA_OF_ASC_NODE":"335.1122","TLE_LINE1":"1 47402U 21005BF  21303.41998355  .00003944  00000-0  28343-3 0  9991","PERIOD":"95.592","ELEMENT_SET_NO":"999","MEAN_MOTION_DOT":"0.00003944","PERIAPSIS":"546.254","EPOCH":"2021-10-30T10:04:46.578720","INCLINATION":"53.0543","OBJECT_NAME":"STARLINK-2124","BSTAR":"0.00028343000000","CLASSIFICATION_TYPE":"U","MEAN_MOTION":"15.06408787","TLE_LINE2":"2 47402  53.0543 335.1122 0001346  77.8717 282.2423 15.06408787 44239","REV_AT_EPOCH":"4423","SITE":"AFETR","REF_FRAME":"TEME","MEAN_ANOMALY":"282.2423","APOAPSIS":"548.119","COUNTRY_CODE":"US","GP_ID":"188521809"},{"COUNTRY_CODE":"US","GP_ID":"188515126","APOAPSIS":"548.164","REV_AT_EPOCH":"4362","TLE_LINE2":"2 47403  53.0568 335.0784 0001371  73.9780 286.1360 15.06399678 43628","MEAN_MOTION":"15.06399678","MEAN_ANOMALY":"286.1360","SITE":"AFETR","REF_FRAME":"TEME","BSTAR":"0.00000201890000","OBJECT_NAME":"STARLINK-2127","CLASSIFICATION_TYPE":"U","INCLINATION":"53.0568","EPOCH":"2021-10-30T10:15:23.478912","ELEMENT_SET_NO":"999","PERIOD":"95.592","PERIAPSIS":"546.265","MEAN_MOTION_DOT":"-0.00000251","TIME_SYSTEM":"UTC","RA_OF_ASC_NODE":"335.0784","TLE_LINE1":"1 47403U 21005BG  21303.42735508 -.00000251  00000-0  20189-5 0  9993","ARG_OF_PERICENTER":"73.9780","FILE":"3192905","NORAD_CAT_ID":"47403","MEAN_ELEMENT_THEORY":"SGP4","CENTER_NAME":"EARTH","RCS_SIZE":"LARGE","MEAN_MOTION_DDOT":"0.0000000000000","OBJECT_ID":"2021-005BG","EPHEMERIS_TYPE":"0","SEMIMAJOR_AXIS":"6925.350","LAUNCH_DATE":"2021-01-20","ECCENTRICITY":"0.00013710","OBJECT_TYPE":"PAYLOAD","DECAY_DATE":null},{"TIME_SYSTEM":"UTC","RA_OF_ASC_NODE":"334.7953","TLE_LINE1":"1 47404U 21005BH  21303.49001261  .00001482  00000-0  11831-3 0  9991","ARG_OF_PERICENTER":"75.4253","FILE":"3192905","NORAD_CAT_ID":"47404","MEAN_ELEMENT_THEORY":"SGP4","CENTER_NAME":"EARTH","RCS_SIZE":"LARGE","MEAN_MOTION_DDOT":"0.0000000000000","OBJECT_ID":"2021-005BH","EPHEMERIS_TYPE":"0","LAUNCH_DATE":"2021-01-20","SEMIMAJOR_AXIS":"6925.322","ECCENTRICITY":"0.00013300","OBJECT_TYPE":"PAYLOAD","DECAY_DATE":null,"COUNTRY_CODE":"US","GP_ID":"188515376","APOAPSIS":"548.108","TLE_LINE2":"2 47404  53.0568 334.7953 0001330  75.4253 284.6883 15.06408533 43635","REV_AT_EPOCH":"4363","MEAN_MOTION":"15.06408533","MEAN_ANOMALY":"284.6883","SITE":"AFETR","REF_FRAME":"TEME","BSTAR":"0.00011831000000","OBJECT_NAME":"STARLINK-2128","CLASSIFICATION_TYPE":"U","EPOCH":"2021-10-30T11:45:37.089504","INCLINATION":"53.0568","PERIOD":"95.592","ELEMENT_SET_NO":"999","MEAN_MOTION_DOT":"0.00001482","PERIAPSIS":"546.266"},{"NORAD_CAT_ID":"47405","MEAN_ELEMENT_THEORY":"SGP4","RCS_SIZE":"LARGE","CENTER_NAME":"EARTH","TLE_LINE1":"1 47405U 21005BJ  21303.53885282 -.00001070  00000-0 -52969-4 0  9993","TIME_SYSTEM":"UTC","RA_OF_ASC_NODE":"4.6639","FILE":"3192905","ARG_OF_PERICENTER":"92.2432","OBJECT_TYPE":"PAYLOAD","ECCENTRICITY":"0.00012560","DECAY_DATE":null,"MEAN_MOTION_DDOT":"0.0000000000000","OBJECT_ID":"2021-005BJ","EPHEMERIS_TYPE":"0","LAUNCH_DATE":"2021-01-20","SEMIMAJOR_AXIS":"6925.336","REV_AT_EPOCH":"4321","TLE_LINE2":"2 47405  53.0578   4.6639 0001256  92.2432 267.8701 15.06404106 43212","MEAN_MOTION":"15.06404106","MEAN_ANOMALY":"267.8701","REF_FRAME":"TEME","SITE":"AFETR","GP_ID":"188515628","COUNTRY_CODE":"US","APOAPSIS":"548.071","EPOCH":"2021-10-30T12:55:56.883648","INCLINATION":"53.0578","PERIAPSIS":"546.331","MEAN_MOTION_DOT":"-0.00001070","PERIOD":"95.592","ELEMENT_SET_NO":"999","BSTAR":"-0.00005296900000","OBJECT_NAME":"STARLINK-2130","CLASSIFICATION_TYPE":"U"},{"INCLINATION":"53.0555","EPOCH":"2021-10-30T12:01:32.999232","ELEMENT_SET_NO":"999","PERIOD":"95.592","MEAN_MOTION_DOT":"0.00004206","PERIAPSIS":"546.322","BSTAR":"0.00030104000000","OBJECT_NAME":"STARLINK-2133","CLASSIFICATION_TYPE":"U","TLE_LINE2":"2 47406  53.0555 334.7348 0001265  78.0978 282.0152 15.06404976 43639","REV_AT_EPOCH":"4363","MEAN_MOTION":"15.06404976","MEAN_ANOMALY":"282.0152","SITE":"AFETR","REF_FRAME":"TEME","COUNTRY_CODE":"US","GP_ID":"188515877","APOAPSIS":"548.074","ECCENTRICITY":"0.00012650","OBJECT_TYPE":"PAYLOAD","DECAY_DATE":null,"MEAN_MOTION_DDOT":"0.0000000000000","OBJECT_ID":"2021-005BK","EPHEMERIS_TYPE":"0","LAUNCH_DATE":"2021-01-20","SEMIMAJOR_AXIS":"6925.333","MEAN_ELEMENT_THEORY":"SGP4","NORAD_CAT_ID":"47406","CENTER_NAME":"EARTH","RCS_SIZE":"LARGE","RA_OF_ASC_NODE":"334.7348","TIME_SYSTEM":"UTC","TLE_LINE1":"1 47406U 21005BK  21303.50107638  .00004206  00000-0  30104-3 0  9991","FILE":"3192905","ARG_OF_PERICENTER":"78.0978"},{"MEAN_ANOMALY":"285.4274","SITE":"AFETR","REF_FRAME":"TEME","REV_AT_EPOCH":"4363","TLE_LINE2":"2 47407  53.0565 334.7168 0001467  74.6877 285.4274 15.06403308 43635","MEAN_MOTION":"15.06403308","COUNTRY_CODE":"US","GP_ID":"188514627","APOAPSIS":"548.219","INCLINATION":"53.0565","EPOCH":"2021-10-30T12:12:09.736992","ELEMENT_SET_NO":"999","PERIOD":"95.592","PERIAPSIS":"546.187","MEAN_MOTION_DOT":"0.00002537","CLASSIFICATION_TYPE":"U","BSTAR":"0.00018915000000","OBJECT_NAME":"STARLINK-2134","NORAD_CAT_ID":"47407","MEAN_ELEMENT_THEORY":"SGP4","CENTER_NAME":"EARTH","RCS_SIZE":"LARGE","TIME_SYSTEM":"UTC","RA_OF_ASC_NODE":"334.7168","TLE_LINE1":"1 47407U 21005BL  21303.50844603  .00002537  00000-0  18915-3 0  9993","FILE":"3192905","ARG_OF_PERICENTER":"74.6877","DECAY_DATE":null,"ECCENTRICITY":"0.00014670","OBJECT_TYPE":"PAYLOAD","EPHEMERIS_TYPE":"0","LAUNCH_DATE":"2021-01-20","SEMIMAJOR_AXIS":"6925.338","MEAN_MOTION_DDOT":"0.0000000000000","OBJECT_ID":"2021-005BL"},{"MEAN_ANOMALY":"281.7243","REF_FRAME":"TEME","SITE":"AFETR","TLE_LINE2":"2 47408  53.0560 334.8339 0001294  78.3891 281.7243 15.06402977 43633","REV_AT_EPOCH":"4363","MEAN_MOTION":"15.06402977","GP_ID":"188514877","COUNTRY_CODE":"US","APOAPSIS":"548.101","INCLINATION":"53.0560","EPOCH":"2021-10-30T11:29:42.107712","PERIAPSIS":"546.308","MEAN_MOTION_DOT":"0.00001038","PERIOD":"95.592","ELEMENT_SET_NO":"999","CLASSIFICATION_TYPE":"U","BSTAR":"0.00008856800000","OBJECT_NAME":"STARLINK-2135","NORAD_CAT_ID":"47408","MEAN_ELEMENT_THEORY":"SGP4","RCS_SIZE":"LARGE","CENTER_NAME":"EARTH","TLE_LINE1":"1 47408U 21005BM  21303.47895958  .00001038  00000-0  88568-4 0  9996","RA_OF_ASC_NODE":"334.8339","TIME_SYSTEM":"UTC","ARG_OF_PERICENTER":"78.3891","FILE":"3192905","DECAY_DATE":null,"OBJECT_TYPE":"PAYLOAD","ECCENTRICITY":"0.00012940","EPHEMERIS_TYPE":"0","SEMIMAJOR_AXIS":"6925.339","LAUNCH_DATE":"2021-01-20","MEAN_MOTION_DDOT":"0.0000000000000","OBJECT_ID":"2021-005BM"},{"MEAN_MOTION":"15.20580087","TLE_LINE2":"2 47413  97.4846   3.3071 0013853 245.5358 114.4432 15.20580087 42556","REV_AT_EPOCH":"4255","SITE":"AFETR","REF_FRAME":"TEME","MEAN_ANOMALY":"114.4432","APOAPSIS":"513.626","COUNTRY_CODE":"US","GP_ID":"188525058","PERIOD":"94.701","ELEMENT_SET_NO":"999","MEAN_MOTION_DOT":"0.00697566","PERIAPSIS":"494.558","EPOCH":"2021-10-30T17:51:46.688832","INCLINATION":"97.4846","OBJECT_NAME":"STARLINK-2199","BSTAR":"0.02971000000000","CLASSIFICATION_TYPE":"U","CENTER_NAME":"EARTH","RCS_SIZE":"LARGE","MEAN_ELEMENT_THEORY":"SGP4","NORAD_CAT_ID":"47413","ARG_OF_PERICENTER":"245.5358","FILE":"3193226","RA_OF_ASC_NODE":"3.3071","TIME_SYSTEM":"UTC","TLE_LINE1":"1 47413U 21006A   21303.74429038  .00697566  00000-0  29710-1 0  9993","ECCENTRICITY":"0.00138530","OBJECT_TYPE":"PAYLOAD","DECAY_DATE":null,"OBJECT_ID":"2021-006A","MEAN_MOTION_DDOT":"0.0000000000000","LAUNCH_DATE":"2021-01-24","SEMIMAJOR_AXIS":"6882.227","EPHEMERIS_TYPE":"0"},{"APOAPSIS":"510.907","COUNTRY_CODE":"US","GP_ID":"188517537","MEAN_MOTION":"15.19898290","REV_AT_EPOCH":"4252","TLE_LINE2":"2 47414  97.4850   3.1003 0006910 327.8398  32.2415 15.19898290 42520","SITE":"AFETR","REF_FRAME":"TEME","MEAN_ANOMALY":"32.2415","OBJECT_NAME":"STARLINK-2200","BSTAR":"0.02929700000000","CLASSIFICATION_TYPE":"U","ELEMENT_SET_NO":"999","PERIOD":"94.743","PERIAPSIS":"501.393","MEAN_MOTION_DOT":"0.00671996","EPOCH":"2021-10-30T13:08:11.587776","INCLINATION":"97.4850","FILE":"3192933","ARG_OF_PERICENTER":"327.8398","RA_OF_ASC_NODE":"3.1003","TIME_SYSTEM":"UTC","TLE_LINE1":"1 47414U 21006B   21303.54735634  .00671996  00000-0  29297-1 0  9993","CENTER_NAME":"EARTH","RCS_SIZE":"LARGE","MEAN_ELEMENT_THEORY":"SGP4","NORAD_CAT_ID":"47414","OBJECT_ID":"2021-006B","MEAN_MOTION_DDOT":"0.0000000000000","SEMIMAJOR_AXIS":"6884.285","LAUNCH_DATE":"2021-01-24","EPHEMERIS_TYPE":"0","ECCENTRICITY":"0.00069100","OBJECT_TYPE":"PAYLOAD","DECAY_DATE":null},{"SITE":"AFETR","REF_FRAME":"TEME","MEAN_ANOMALY":"167.0440","MEAN_MOTION":"15.04755057","TLE_LINE2":"2 47415  97.4964 359.8245 0002191 193.0730 167.0440 15.04755057 42326","REV_AT_EPOCH":"4232","APOAPSIS":"553.778","COUNTRY_CODE":"US","GP_ID":"188520207","ELEMENT_SET_NO":"999","PERIOD":"95.697","PERIAPSIS":"550.741","MEAN_MOTION_DOT":"0.00288626","EPOCH":"2021-10-30T16:52:08.184000","INCLINATION":"97.4964","CLASSIFICATION_TYPE":"U","OBJECT_NAME":"STARLINK-2201","BSTAR":"0.01967200000000","CENTER_NAME":"EARTH","RCS_SIZE":"LARGE","MEAN_ELEMENT_THEORY":"SGP4","NORAD_CAT_ID":"47415","FILE":"3193043","ARG_OF_PERICENTER":"193.0730","RA_OF_ASC_NODE":"359.8245","TIME_SYSTEM":"UTC","TLE_LINE1":"1 47415U 21006C   21303.70287250  .00288626  00000-0  19672-1 0  9998","DECAY_DATE":null,"ECCENTRICITY":"0.00021910","OBJECT_TYPE":"PAYLOAD","SEMIMAJOR_AXIS":"6930.395","LAUNCH_DATE":"2021-01-24","EPHEMERIS_TYPE":"0","OBJECT_ID":"2021-006C","MEAN_MOTION_DDOT":"0.0000000000000"}];
